{
  "type": "FeatureCollection",
  "features": [
    {
      "type": "Feature",
      "properties": {
        "norad_id": 33791,
        "name": "COSMOS 2251 DEB",
        "group": "cosmos-2251-debris",
        "lat": -5.521819860435402,
        "lon": 50.446687120960384,
        "alt_km": 756.891228210814,
        "timestamp": "2025-12-04T21:36:16.264347+00:00",
        "meta_object_name": "COSMOS 2251 DEB",
        "meta_object_id": "1993-036AG",
        "meta_epoch": "2025-12-04T15:42:14.177664",
        "meta_mean_motion": 14.43060967,
        "meta_eccentricity": 0.00306121,
        "meta_inclination": 74.1763,
        "meta_ra_of_asc_node": 52.4702,
        "meta_arg_of_pericenter": 250.9996,
        "meta_mean_anomaly": 266.3225,
        "meta_ephemeris_type": 0,
        "meta_classification_type": "U",
        "meta_norad_cat_id": 33791,
        "meta_element_set_no": 999,
        "meta_rev_at_epoch": 87935,
        "meta_bstar": 0.0015483693,
        "meta_mean_motion_dot": 5.199e-05,
        "meta_mean_motion_ddot": 0,
        "tle_line1": "1 33791U 93036AG  25338.65433076  .00005199  00000+0  15484-2 0  9996",
        "tle_line2": "2 33791  74.1763  52.4702 0030612 250.9996 266.3225 14.43060967879353"
      },
      "geometry": {
        "type": "Point",
        "coordinates": [
          50.446687120960384,
          -5.521819860435402
        ]
      }
    },
    {
      "type": "Feature",
      "properties": {
        "norad_id": 33792,
        "name": "COSMOS 2251 DEB",
        "group": "cosmos-2251-debris",
        "lat": -72.76510378650256,
        "lon": -113.55915691979132,
        "alt_km": 1392.9498255016333,
        "timestamp": "2025-12-04T21:36:16.264357+00:00",
        "meta_object_name": "COSMOS 2251 DEB",
        "meta_object_id": "1993-036AH",
        "meta_epoch": "2025-12-04T12:05:38.033952",
        "meta_mean_motion": 13.45805902,
        "meta_eccentricity": 0.04268182,
        "meta_inclination": 73.9011,
        "meta_ra_of_asc_node": 358.4963,
        "meta_arg_of_pericenter": 64.688,
        "meta_mean_anomaly": 81.5791,
        "meta_ephemeris_type": 0,
        "meta_classification_type": "U",
        "meta_norad_cat_id": 33792,
        "meta_element_set_no": 999,
        "meta_rev_at_epoch": 82331,
        "meta_bstar": 0.0011246402,
        "meta_mean_motion_dot": 1.145e-05,
        "meta_mean_motion_ddot": 0,
        "tle_line1": "1 33792U 93036AH  25338.50391243  .00001145  00000+0  11246-2 0  9999",
        "tle_line2": "2 33792  73.9011 358.4963 0426818  64.6880  81.5791 13.45805902823311"
      },
      "geometry": {
        "type": "Point",
        "coordinates": [
          -113.55915691979132,
          -72.76510378650256
        ]
      }
    },
    {
      "type": "Feature",
      "properties": {
        "norad_id": 33793,
        "name": "COSMOS 2251 DEB",
        "group": "cosmos-2251-debris",
        "lat": -46.016159010001026,
        "lon": 146.84693295979392,
        "alt_km": 749.8711559990898,
        "timestamp": "2025-12-04T21:36:16.264368+00:00",
        "meta_object_name": "COSMOS 2251 DEB",
        "meta_object_id": "1993-036AJ",
        "meta_epoch": "2025-12-04T15:27:23.836032",
        "meta_mean_motion": 14.2768171,
        "meta_eccentricity": 0.00782292,
        "meta_inclination": 73.9802,
        "meta_ra_of_asc_node": 164.6306,
        "meta_arg_of_pericenter": 316.3245,
        "meta_mean_anomaly": 119.2862,
        "meta_ephemeris_type": 0,
        "meta_classification_type": "U",
        "meta_norad_cat_id": 33793,
        "meta_element_set_no": 999,
        "meta_rev_at_epoch": 87091,
        "meta_bstar": 0.001292093,
        "meta_mean_motion_dot": 3.266e-05,
        "meta_mean_motion_ddot": 0,
        "tle_line1": "1 33793U 93036AJ  25338.64402588  .00003266  00000+0  12921-2 0  9997",
        "tle_line2": "2 33793  73.9802 164.6306 0078229 316.3245 119.2862 14.27681710870915"
      },
      "geometry": {
        "type": "Point",
        "coordinates": [
          146.84693295979392,
          -46.016159010001026
        ]
      }
    },
    {
      "type": "Feature",
      "properties": {
        "norad_id": 33795,
        "name": "COSMOS 2251 DEB",
        "group": "cosmos-2251-debris",
        "lat": -48.294736023355405,
        "lon": -68.45184461453692,
        "alt_km": 543.8239652545944,
        "timestamp": "2025-12-04T21:36:16.264379+00:00",
        "meta_object_name": "COSMOS 2251 DEB",
        "meta_object_id": "1993-036AL",
        "meta_epoch": "2025-12-04T16:19:25.481856",
        "meta_mean_motion": 15.05017525,
        "meta_eccentricity": 0.00329281,
        "meta_inclination": 74.0323,
        "meta_ra_of_asc_node": 93.2564,
        "meta_arg_of_pericenter": 179.3235,
        "meta_mean_anomaly": 299.6005,
        "meta_ephemeris_type": 0,
        "meta_classification_type": "U",
        "meta_norad_cat_id": 33795,
        "meta_element_set_no": 999,
        "meta_rev_at_epoch": 89900,
        "meta_bstar": 0.0033446006,
        "meta_mean_motion_dot": 0.00048355,
        "meta_mean_motion_ddot": 0,
        "tle_line1": "1 33795U 93036AL  25338.68015604  .00048355  00000+0  33446-2 0  9995",
        "tle_line2": "2 33795  74.0323  93.2564 0032928 179.3235 299.6005 15.05017525899009"
      },
      "geometry": {
        "type": "Point",
        "coordinates": [
          -68.45184461453692,
          -48.294736023355405
        ]
      }
    },
    {
      "type": "Feature",
      "properties": {
        "norad_id": 33797,
        "name": "COSMOS 2251 DEB",
        "group": "cosmos-2251-debris",
        "lat": -48.96267542671144,
        "lon": 30.675506593311855,
        "alt_km": 749.1721245707749,
        "timestamp": "2025-12-04T21:36:16.264389+00:00",
        "meta_object_name": "COSMOS 2251 DEB",
        "meta_object_id": "1993-036AN",
        "meta_epoch": "2025-12-04T15:47:58.485984",
        "meta_mean_motion": 14.57795743,
        "meta_eccentricity": 0.00611155,
        "meta_inclination": 74.0489,
        "meta_ra_of_asc_node": 50.3178,
        "meta_arg_of_pericenter": 140.5725,
        "meta_mean_anomaly": 338.8444,
        "meta_ephemeris_type": 0,
        "meta_classification_type": "U",
        "meta_norad_cat_id": 33797,
        "meta_element_set_no": 999,
        "meta_rev_at_epoch": 88867,
        "meta_bstar": 0.0011188678,
        "meta_mean_motion_dot": 5.225e-05,
        "meta_mean_motion_ddot": 0,
        "tle_line1": "1 33797U 93036AN  25338.65831581  .00005225  00000+0  11189-2 0  9993",
        "tle_line2": "2 33797  74.0489  50.3178 0061115 140.5725 338.8444 14.57795743888678"
      },
      "geometry": {
        "type": "Point",
        "coordinates": [
          30.675506593311855,
          -48.96267542671144
        ]
      }
    },
    {
      "type": "Feature",
      "properties": {
        "norad_id": 33798,
        "name": "COSMOS 2251 DEB",
        "group": "cosmos-2251-debris",
        "lat": -18.55535098389738,
        "lon": -23.975704032973905,
        "alt_km": 729.6832177068309,
        "timestamp": "2025-12-04T21:36:16.264399+00:00",
        "meta_object_name": "COSMOS 2251 DEB",
        "meta_object_id": "1993-036AP",
        "meta_epoch": "2025-12-04T14:21:35.515008",
        "meta_mean_motion": 14.44599344,
        "meta_eccentricity": 0.00924833,
        "meta_inclination": 74.0277,
        "meta_ra_of_asc_node": 151.0695,
        "meta_arg_of_pericenter": 274.1906,
        "meta_mean_anomaly": 156.838,
        "meta_ephemeris_type": 0,
        "meta_classification_type": "U",
        "meta_norad_cat_id": 33798,
        "meta_element_set_no": 999,
        "meta_rev_at_epoch": 88476,
        "meta_bstar": 0.00028713725,
        "meta_mean_motion_dot": 1.017e-05,
        "meta_mean_motion_ddot": 0,
        "tle_line1": "1 33798U 93036AP  25338.59832772  .00001017  00000+0  28714-3 0  9998",
        "tle_line2": "2 33798  74.0277 151.0695 0092483 274.1906 156.8380 14.44599344884762"
      },
      "geometry": {
        "type": "Point",
        "coordinates": [
          -23.975704032973905,
          -18.55535098389738
        ]
      }
    },
    {
      "type": "Feature",
      "properties": {
        "norad_id": 33799,
        "name": "COSMOS 2251 DEB",
        "group": "cosmos-2251-debris",
        "lat": -0.656514353406478,
        "lon": -82.59151615352879,
        "alt_km": 617.2264130730164,
        "timestamp": "2025-12-04T21:36:16.264409+00:00",
        "meta_object_name": "COSMOS 2251 DEB",
        "meta_object_id": "1993-036AQ",
        "meta_epoch": "2025-12-04T16:12:23.252832",
        "meta_mean_motion": 14.79372676,
        "meta_eccentricity": 0.00243592,
        "meta_inclination": 74.0319,
        "meta_ra_of_asc_node": 97.663,
        "meta_arg_of_pericenter": 170.6106,
        "meta_mean_anomaly": 252.5395,
        "meta_ephemeris_type": 0,
        "meta_classification_type": "U",
        "meta_norad_cat_id": 33799,
        "meta_element_set_no": 999,
        "meta_rev_at_epoch": 88692,
        "meta_bstar": 0.0032643139,
        "meta_mean_motion_dot": 0.0002451,
        "meta_mean_motion_ddot": 0,
        "tle_line1": "1 33799U 93036AQ  25338.67526913  .00024510  00000+0  32643-2 0  9993",
        "tle_line2": "2 33799  74.0319  97.6630 0024359 170.6106 252.5395 14.79372676886928"
      },
      "geometry": {
        "type": "Point",
        "coordinates": [
          -82.59151615352879,
          -0.656514353406478
        ]
      }
    }
  ]
}